#cP2025  2  8  0  0  0.00000000     288   u+U IGS20 FIT  GFZ                    
## 2352 518400.00000000   300.00000000 60714 0.0000000000000                    
+   79   E02E03E04E05E06E07E08E09E10E13E14E15E16E18E19E21E23                    
+        E24E25E26E27E29E30E31E33E34E36G01G02G03G04G05G06G07                    
+        G08G09G10G11G12G13G14G15G16G17G18G19G20G21G22G23G24                    
+        G25G26G27G28G29G30G31G32R01R02R03R04R05R07R08R09R11                    
+        R12R14R15R16R17R18R19R20R21R22R24 00 00 00 00 00 00                    
++         5  5  6  7  6  5  5  5  5  5  6  6  5  5  5  5  6                    
++         5  5  5  5  5  5  6  5  7  6  9  0  5  5  5  6  5                    
++         6  5  5  5  6  5  5  5  5  6  5  5  7  6  5  5  5                    
++         5  5  6  5  6  5  5  5  8  6  5  5  6  6  7  5  6                    
++         7  6  6  8  6  6  7  8  6  5  6  0  0  0  0  0  0                    
%c M  cc GPS ccc cccc cccc cccc cccc ccccc ccccc ccccc ccccc                    
%c cc cc ccc ccc cccc cccc cccc cccc ccccc ccccc ccccc ccccc                    
%f  1.2500000  1.025000000  0.00000000000  0.000000000000000                    
%f  0.0000000  0.000000000  0.00000000000  0.000000000000000                    
%i    0    0    0    0      0      0      0      0         0                    
%i    0    0    0    0      0      0      0      0         0                    
/* PCV:IGS20_2335 OL/AL:FES2014b NONE     YN CLK:CoN ORB:CoN                    
/*     GeoForschungsZentrum Potsdam                                             
/*                                                                              
/*                                                                              
*  2025  2  8  6 15  0.00000000                                                 
PE02 -19956.990804 -13185.719458 -17462.530972    196.079302                    
PE03 -16853.652823 -23620.151039  -5821.067490   -171.713081                    
PE04  19816.965713   6454.652178  21028.341893   -152.604600                    
PE05  -4038.932033 -26532.064747  12487.160586   4825.862318                    
PE06  16791.414594  -4304.969574  23982.165811    -79.932561                    
PE07 -11373.178440  13699.163157 -23642.576080   -167.895077                    
PE08 -19804.401494  -7230.027782 -20772.177496   -413.625691                    
PE09  11317.530161 -13551.427986  23757.605983   -768.245333                    
PE10  20896.552416 -14062.919442 -15548.759166   -688.572278                    
PE13 -19053.315845  21637.654525   6681.699288    -30.151122                    
PE14  17912.519941  -6746.504953 -22083.057724    697.420786                    
PE15 -19490.744449   4327.465343  21859.900493   -155.799963                    
PE16  12225.332577 -14977.898265 -22425.232712    -19.692927                    
PE18  -4442.859777  22545.346053  17198.061678   1088.589534                    
PE19  15927.072433  24577.474476   4306.664940   1349.864623                    
PE21   -891.243254  16859.810443  24303.052990   -645.055595                    
PE23  20204.622493  12923.142468  17335.175047      7.016562                    
PE24  21752.903828 -10732.324582 -16973.491149  -1257.491591                    
PE25   1432.571720 -16836.386679 -24308.026982     14.065213                    
PE26  -7069.611600  25924.686825 -12393.619751   -130.957724                    
PE27 -21794.722999  10701.860609  16930.506539   -577.298119                    
PE29   4183.767595  26667.793554 -12133.360533    -68.849955                    
PE30 -29562.563843  -1645.633751   -160.419399  -1220.853003                    
PE31  29547.425981   1677.075222    318.171556    -53.760394                    
PE33   8167.900065  15551.435746 -23813.591919     16.409230                    
PE34  -8500.949186 -15212.283102  23929.979102   -162.380301                    
PE36   7519.017482 -25972.335608  12073.161917   -350.285590                    
PG01 -15756.882998  21139.663630   3165.916524    106.960431                    
PG02 -14322.057805  20927.519948   7594.383728   -248.223110                    
PG03 -16259.480500  12049.782144 -17301.674791    660.117474                    
PG04  -5710.023456  16903.172301 -19603.597062    524.055133                    
PG05  25454.266473  -5764.277663   4950.614688   -201.345012                    
PG06  11169.901296   9708.601423 -21974.949283   -173.392760                    
PG07  -3964.148664  24048.319564  10536.660065    -13.630306                    
PG08 -13860.900931   6966.847628  21443.437181    476.342599                    
PG09   3396.041531  22379.558988 -13932.889297    559.233693                    
PG10 -17538.160278 -10676.553100  17268.324596   -309.851898                    
PG11  17162.381280  -1914.692231 -20122.528326   -748.396598                    
PG12  18714.522554 -10639.329862 -15822.999561   -569.013971                    
PG13  16642.550584   3341.118368  20258.486224    695.856695                    
PG14  13983.764218  13088.764209  18548.201798    594.730426                    
PG15  12374.254091  -9320.492968  21058.979271    261.000749                    
PG16 -26777.137117  -1265.324798   -253.291255    -58.204771                    
PG17  12608.718392  23242.819880    492.435794    436.083129                    
PG18   3223.857920 -23291.431421  12158.318599   -654.213333                    
PG19  16900.507717  18333.805720  -9900.710198    595.575330                    
PG20  25317.055411   -258.882174  -7728.885320    366.461167                    
PG21 -16394.589834  15410.327708  13511.304251    101.843825                    
PG22  19996.298124  10680.194843  13960.697305    -96.073881                    
PG23  -2315.819022 -14615.955978  22108.176312    419.486947                    
PG24  14488.027971 -20250.624181   8182.571758   -454.630433                    
PG25   5494.761312 -15557.738737 -21131.210527    495.375706                    
PG26 -24099.943124  -4844.444972 -10731.292943    -81.951183                    
PG27 -18692.084985  -5583.188114  17904.146336    -31.842568                    
PG28 -10766.996773 -11798.822934 -21227.923670   -554.692480                    
PG29  -1295.856258 -22568.973621 -13890.980609   -539.712937                    
PG30   5701.867355  18429.115248  18300.973662   -221.042226                    
PG31 -15742.855675  -2926.382802 -21483.573707   -216.011834                    
PG32 -16803.982329 -20202.317850  -4322.732229   -526.007831                    
PR01  -8456.486116 -16318.213956  17687.415244    114.006635                    
PR02 -19281.133518 -16560.555524   2601.922701    -37.619350                    
PR03 -19903.659371  -6677.867396 -14481.036830    116.440882                    
PR04  -9396.797328   6027.099790 -22902.690742    276.261349                    
PR05   5893.679832  15799.295975 -19114.068274    145.014630                    
PR07  19741.460711   6370.244191  14854.372178    100.390682                    
PR08   9138.118237  -6491.286763  22976.070252     -6.188809                    
PR09  12920.914962   5669.725061  21284.268954    236.746220                    
PR11  21493.109318 -12371.623071  -6005.300951     -7.367373                    
PR12   5774.741633 -13371.962078 -20919.893595     50.547983                    
PR14 -23082.858501   4966.160381  -9623.316427     27.726129                    
PR15 -20612.402123  12838.350421   7809.008436     71.407676                    
PR16  -5907.153398  13290.315417  20947.922812     33.139713                    
PR17 -10949.180248   2356.982880  22931.024656    164.309766                    
PR18  -9578.135014  18242.099948  15018.891905    185.966355                    
PR19  -5094.162375  24959.549596   1312.893367    -39.887458                    
PR20   5149.876777  17120.822615 -18161.430067   -125.582250                    
PR21  10733.323503   -673.575909 -23126.059081   -174.970065                    
PR22   9847.138264 -19055.076341 -13790.283208    -59.659688                    
PR24  -6593.821932 -16505.726976  18310.173516    -91.574914                    
EOF                                     
